ONEWEB-0207             
1 48242U 21031AJ  24332.63353246 -.00000007  00000+0 -52206-4 0  9990
2 48242  87.9026  42.3495 0001875 108.5851 251.5482 13.14503904173862
ONEWEB-0208             
1 48243U 21031AK  24333.45258965 -.00000132  00000+0 -39015-3 0  9995
2 48243  87.9024  42.2011 0001614 102.5411 257.5899 13.14502181173988
ONEWEB-0200             
1 48244U 21031AL  24332.50269831  .00000283  00000+0  72878-3 0  9994
2 48244  87.9025  42.3854 0001560 101.7872 258.3432 13.14501285173782
ONEWEB-0217             
1 48245U 21031AM  24332.44244583  .00000058  00000+0  12331-3 0  9993
2 48245  87.9026  42.3817 0001429 100.8977 259.2313 13.14502627173726
ONEWEB-0211             
1 48767U 21045A   24332.39185957  .00000071  00000+0  15556-3 0  9997
2 48767  87.9084  12.0109 0001716  89.8729 270.2598 13.15548298169893
ONEWEB-0223             
1 48768U 21045B   24332.56617215  .00000252  00000+0  63536-3 0  9996
2 48768  87.9087  11.9889 0001684  78.8024 281.3296 13.15547233169908
ONEWEB-0230             
1 48769U 21045C   24333.37427879 -.00000042  00000+0 -14555-3 0  9998
2 48769  87.9085  11.8971 0001943  93.0798 267.0555 13.15547837171387
ONEWEB-0237             
1 48770U 21045D   24333.36319314  .00000040  00000+0  71834-4 0  9993
2 48770  87.9094  11.8398 0001781  84.6597 275.4736 13.15547615171125
